NORAD_CAT_ID,OBJECT_NAME,OBJECT_TYPE,EPOCH,MEAN_MOTION,ECCENTRICITY,INCLINATION,RA_OF_ASC_NODE,ARG_OF_PERICENTER,MEAN_ANOMALY,BSTAR,MEAN_MOTION_DOT,MEAN_MOTION_DDOT,TLE_LINE0,TLE_LINE1,TLE_LINE2,SEMIMAJOR_AXIS,PERIOD,APOGEE,PERIGEE,DECAYED
51786.0,STARLINK-3638,PAYLOAD,2022-08-14 16:00:01,15.08863184,0.0001865,53.2148,78.6135,70.2605,29.9746,-0.00066238,-0.00010821,0.0,0 STARLINK-3638,1 51786U 22017U   22226.66668981 -.00010821  00000-0 -66238-3 0  9995,2 51786  53.2148  78.6135 0001865  70.2605  29.9746 15.08863184 27259,6917.81,95.436,540.965,538.384,0.0
51786.0,STARLINK-3638,PAYLOAD,2022-08-14 22:00:00,15.08856249,0.000194,53.2148,77.4925,64.0133,314.8699,-0.0023273,-0.00037154,0.0,0 STARLINK-3638,1 51786U 22017U   22226.91667824 -.00037154  00000-0 -23273-2 0  9997,2 51786  53.2148  77.4925 0001940  64.0133 314.8699 15.08856249  1309,6917.831,95.437,541.038,538.354,0.0
51786.0,STARLINK-3638,PAYLOAD,2022-08-15 14:00:01,15.08832933,0.0001817,53.2152,74.4976,69.8141,332.2542,0.001458,0.00022988,0.0,0 STARLINK-3638,1 51786U 22017U   22227.58334491  .00022988  00000-0  14580-2 0  9990,2 51786  53.2152  74.4976 0001817  69.8141 332.2542 15.08832933  1307,6917.901999999999,95.438,541.024,538.51,0.0
51786.0,STARLINK-3638,PAYLOAD,2022-08-15 22:00:00,15.08843996,0.0001919,53.2153,73.0029,62.8115,350.8537,-0.001016,-0.00016423,0.0,0 STARLINK-3638,1 51786U 22017U   22227.91667824 -.00016423  00000-0 -10160-2 0  9995,2 51786  53.2153  73.0029 0001919  62.8115 350.8537 15.08843996  1300,6917.868,95.437,541.061,538.406,0.0
51786.0,STARLINK-3638,PAYLOAD,2022-08-16 00:00:00,15.08830272,0.0001883,53.2154,72.62899999999998,61.0557,85.5131,0.00043829,6.692e-05,0.0,0 STARLINK-3638,1 51786U 22017U   22228.00001157  .00006692  00000-0  43829-3 0  9991,2 51786  53.2154  72.6290 0001883  61.0557  85.5131 15.08830272 27456,6917.91,95.438,541.078,538.472,0.0
51786.0,STARLINK-3638,PAYLOAD,2022-08-16 14:00:01,15.0882984,0.0001766,53.2159,70.0082,68.4547,8.3879,0.0010612,0.00016637,0.0,0 STARLINK-3638,1 51786U 22017U   22228.58334491  .00016637  00000-0  10612-2 0  9997,2 51786  53.2159  70.0082 0001766  68.4547   8.3879 15.08829840  1309,6917.911,95.438,540.998,538.555,0.0
51786.0,STARLINK-3638,PAYLOAD,2022-08-16 22:00:00,15.08824606,0.0001891,53.2161,68.5135,61.9346,26.4999,0.0012657,0.00019905,0.0,0 STARLINK-3638,1 51786U 22017U   22228.91667824  .00019905  00000-0  12657-2 0  9995,2 51786  53.2161  68.5135 0001891  61.9346  26.4999 15.08824606  1306,6917.927,95.439,541.101,538.484,0.0
51786.0,STARLINK-3638,PAYLOAD,2022-08-17 08:00:01,15.08844233,0.0001704,53.2164,66.6414,65.6801,127.2435,-0.0010611,-0.00017138,0.0,0 STARLINK-3638,1 51786U 22017U   22229.33334491 -.00017138  00000-0 -10611-2 0  9999,2 51786  53.2164  66.6414 0001704  65.6801 127.2435 15.08844233 27668,6917.8669999999975,95.437,540.911,538.554,0.0
51786.0,STARLINK-3638,PAYLOAD,2022-08-17 16:00:00,15.0884151,0.0001691,53.2166,65.1455,66.0186,138.4959,-0.0016995,-0.00027235,0.0,0 STARLINK-3638,1 51786U 22017U   22229.66667824 -.00027235  00000-0 -16995-2 0  9994,2 51786  53.2166  65.1455 0001691  66.0186 138.4959 15.08841510  1308,6917.876,95.437,540.911,538.571,0.0
51786.0,STARLINK-3638,PAYLOAD,2022-08-18 08:00:01,15.08825528,0.0001616,53.2168,62.1522,65.3334,162.36,0.0019827,0.00031395,0.0,0 STARLINK-3638,1 51786U 22017U   22230.33334491  .00031395  00000-0  19827-2 0  9998,2 51786  53.2168  62.1522 0001616  65.3334 162.3600 15.08825528 27810,6917.925,95.438,540.908,538.672,0.0
51786.0,STARLINK-3638,PAYLOAD,2022-08-18 14:00:01,15.0885367,0.0001652,53.217,61.03,68.4391,77.9409,0.00041812,6.375e-05,0.0,0 STARLINK-3638,1 51786U 22017U   22230.58334491  .00006375  00000-0  41812-3 0  9995,2 51786  53.2170  61.0300 0001652  68.4391  77.9409 15.08853670  1305,6917.839,95.437,540.846,538.561,0.0
51786.0,STARLINK-3638,PAYLOAD,2022-08-18 22:00:00,15.08839271,0.0001738,53.2169,59.5352,60.3664,97.6321,0.0023063,0.00036607,0.0,0 STARLINK-3638,1 51786U 22017U   22230.91667824  .00036607  00000-0  23063-2 0  9999,2 51786  53.2169  59.5352 0001738  60.3664  97.6321 15.08839271  1304,6917.8830000000025,95.438,540.95,538.545,0.0
51786.0,STARLINK-3638,PAYLOAD,2022-08-19 06:00:00,15.08919855,0.0001615,53.217,58.0367,62.088,107.5126,-0.012312,-0.0019149,0.0,0 STARLINK-3638,1 51786U 22017U   22231.25001157 -.00191490  00000-0 -12312-1 0  9996,2 51786  53.2170  58.0367 0001615  62.0880 107.5126 15.08919855 27959,6917.636,95.433,540.619,538.384,0.0
51786.0,STARLINK-3638,PAYLOAD,2022-08-19 14:00:01,15.08832418,0.0001421,53.217,56.5412,66.4795,114.7237,-0.0013532,-0.00021755,0.0,0 STARLINK-3638,1 51786U 22017U   22231.58334491 -.00021755  00000-0 -13532-2 0  9994,2 51786  53.2170  56.5412 0001421  66.4795 114.7237 15.08832418  1304,6917.904,95.438,540.752,538.786,0.0
51786.0,STARLINK-3638,PAYLOAD,2022-08-19 16:00:00,15.08831971,0.0001415,53.2168,56.1677,63.0849,211.0128,-0.0017475,-0.00027986,0.0,0 STARLINK-3638,1 51786U 22017U   22231.66667824 -.00027986  00000-0 -17475-2 0  9994,2 51786  53.2168  56.1677 0001415  63.0849 211.0128 15.08831971 28016,6917.905,95.438,540.749,538.7909999999998,0.0
51786.0,STARLINK-3638,PAYLOAD,2022-08-19 22:00:00,15.08795266,0.0001513,53.2167,55.0465,56.7739,136.0084,0.0026353,0.00041851,0.0,0 STARLINK-3638,1 51786U 22017U   22231.91667824  .00041851  00000-0  26353-2 0  9992,2 51786  53.2167  55.0465 0001513  56.7739 136.0084 15.08795266  1300,6918.017,95.44,540.929,538.835,0.0
51786.0,STARLINK-3638,PAYLOAD,2022-08-20 14:00:01,15.088373,0.0001405,53.2166,52.0526,67.1455,148.7603,-0.00065484,-0.00010694,0.0,0 STARLINK-3638,1 51786U 22017U   22232.58334491 -.00010694  00000-0 -65484-3 0  9999,2 51786  53.2166  52.0526 0001405  67.1455 148.7603 15.08837300  1308,6917.889,95.438,540.726,538.7819999999998,0.0
51786.0,STARLINK-3638,PAYLOAD,2022-08-20 16:00:00,15.08841218,0.0001426999999999,53.2164,51.679,63.8514,244.9504,-0.0014711,-0.00023625,0.0,0 STARLINK-3638,1 51786U 22017U   22232.66667824 -.00023625  00000-0 -14711-2 0  9991,2 51786  53.2164  51.6790 0001427  63.8514 244.9504 15.08841218 28162,6917.877,95.437,540.729,538.754,0.0
51786.0,STARLINK-3638,PAYLOAD,2022-08-20 22:00:00,15.08808363,0.0001515,53.2163,50.5577,57.7455,169.7532,0.0028994,0.00046118,0.0,0 STARLINK-3638,1 51786U 22017U   22232.91667824  .00046118  00000-0  28994-2 0  9997,2 51786  53.2163  50.5577 0001515  57.7455 169.7532 15.08808363  1302,6917.977,95.44,540.89,538.794,0.0
51786.0,STARLINK-3638,PAYLOAD,2022-08-21 14:00:01,15.08851023,0.0001435,53.2161,47.5636,67.0988,183.5564,-0.00096527,-0.00015622,0.0,0 STARLINK-3638,1 51786U 22017U   22233.58334491 -.00015622  00000-0 -96527-3 0  9998,2 51786  53.2161  47.5636 0001435  67.0988 183.5564 15.08851023  1308,6917.847,95.437,540.7040000000002,538.719,0.0
51786.0,STARLINK-3638,PAYLOAD,2022-08-21 16:00:00,15.08853049,0.0001464,53.216,47.19,63.642,279.9134,-0.0015964,-0.00025614,0.0,0 STARLINK-3638,1 51786U 22017U   22233.66667824 -.00025614  00000-0 -15964-2 0  9993,2 51786  53.2160  47.1900 0001464  63.6420 279.9134 15.08853049 28315,6917.840999999999,95.437,540.7180000000002,538.693,0.0
51786.0,STARLINK-3638,PAYLOAD,2022-08-21 22:00:00,15.08819634,0.0001539,53.2159,46.0686,57.8017,204.4608,0.0030278,0.00048202,0.0,0 STARLINK-3638,1 51786U 22017U   22233.91667824  .00048202  00000-0  30278-2 0  9992,2 51786  53.2159  46.0686 0001539  57.8017 204.4608 15.08819634  1303,6917.943,95.439,540.872,538.743,0.0
51786.0,STARLINK-3638,PAYLOAD,2022-08-22 06:00:00,15.08840193,0.0001415,53.2159,44.5704,63.4935,210.3655,0.00082322,0.00012838,0.0,0 STARLINK-3638,1 51786U 22017U   22234.25001157  .00012838  00000-0  82322-3 0  9995,2 51786  53.2159  44.5704 0001415  63.4935 210.3655 15.08840193 28404,6917.88,95.438,540.724,538.766,0.0
51786.0,STARLINK-3638,PAYLOAD,2022-08-22 12:00:00,15.08853409,0.000146,53.216,43.448,68.0004,124.5519,0.00049684,7.631e-05,0.0,0 STARLINK-3638,1 51786U 22017U   22234.50001157  .00007631  00000-0  49684-3 0  9992,2 51786  53.2160  43.4480 0001460  68.0004 124.5519 15.08853409  1302,6917.839,95.437,540.714,538.694,0.0
51786.0,STARLINK-3638,PAYLOAD,2022-08-22 22:00:00,15.08836836,0.0001515,53.2159,41.5792,55.6227,241.4519,0.00026966,4.006e-05,0.0,0 STARLINK-3638,1 51786U 22017U   22234.91667824  .00004006  00000-0  26966-3 0  9997,2 51786  53.2159  41.5792 0001515  55.6227 241.4519 15.08836836  1309,6917.89,95.438,540.803,538.707,0.0
51786.0,STARLINK-3638,PAYLOAD,2022-08-23 06:00:00,15.08819989,0.0001354,53.2161,40.0809,60.8659,247.8082,0.0013312999999999,0.00020951,0.0,0 STARLINK-3638,1 51786U 22017U   22235.25001157  .00020951  00000-0  13313-2 0  9994,2 51786  53.2161  40.0809 0001354  60.8659 247.8082 15.08819989 28554,6917.941999999999,95.439,540.743,538.87,0.0
51786.0,STARLINK-3638,PAYLOAD,2022-08-23 14:00:01,15.08851573,0.0001428,53.2162,38.5849,61.9567,258.2911,-0.0014227,-0.00022866,0.0,0 STARLINK-3638,1 51786U 22017U   22235.58334491 -.00022866  00000-0 -14227-2 0  9994,2 51786  53.2162  38.5849 0001428  61.9567 258.2911 15.08851573  1309,6917.845,95.437,540.698,538.722,0.0
51786.0,STARLINK-3638,PAYLOAD,2022-08-23 22:00:01,15.08819033,0.0001525,53.2162,37.0897,53.8356,278.0762,0.0027068,0.00043029,0.0,0 STARLINK-3638,1 51786U 22017U   22235.91668981  .00043029  00000-0  27068-2 0  9994,2 51786  53.2162  37.0897 0001525  53.8356 278.0762 15.08819033  1309,6917.944,95.439,540.864,538.754,0.0
51786.0,STARLINK-3638,PAYLOAD,2022-08-24 08:00:01,15.08822099,0.0001379,53.2164,35.217,62.3566,13.9905,0.002956,0.00047048,0.0,0 STARLINK-3638,1 51786U 22017U   22236.33334491  .00047048  00000-0  29560-2 0  9991,2 51786  53.2164  35.2170 0001379  62.3566  13.9905 15.08822099 28715,6917.935,95.439,540.754,538.846,0.0
